line1,line2,validFromUtcTime
1 00000U 00000E   26001.00000000  .00000000  00000-0  27772-4 0    01,2 00000  88.8750  60.3317 0010141 269.7324 120.3414 13.55322336    06,2026-01-01T00:00:00Z
1 00000U 00000E   26002.00000000  .00000000  00000-0  27772-4 0    02,2 00000  88.8750  60.2173 0010141 266.8225 319.5002 13.55322374    00,2026-01-02T00:00:00Z
